YAOGAN-36 04C           
1 54750U 22171E   26068.78871400  .00016196  00000+0  54592-3 0  9991
2 54750  34.9797  96.6578 0006685 275.3761  84.6192 15.29852307180246
STARLINK-34392          
1 64451U 25130P   26068.45851903  .00035532  00000+0  12064-2 0  9990
2 64451  53.1595  89.8922 0001337  93.8643 266.2511 15.30191197 40661
